CCSDS_OMM_VERS = 2.0
CREATION_DATE  = 
ORIGINATOR     = 

OBJECT_NAME    = UNKNOWN
OBJECT_ID      = 
CENTER_NAME    = EARTH
REF_FRAME      = TEME
TIME_SYSTEM    = UTC
MEAN_ELEMENT_THEORY = SGP/SGP4

EPOCH          = 2026-02-27T06:47:34.915200
MEAN_MOTION    = 13.54264605
ECCENTRICITY   = .0059218
INCLINATION    = 100.4724
RA_OF_ASC_NODE = 352.1860
ARG_OF_PERICENTER = 36.2212
MEAN_ANOMALY   = 324.2910

EPHEMERIS_TYPE = 0
CLASSIFICATION_TYPE = U
NORAD_CAT_ID   = 82162
ELEMENT_SET_NO = 999
REV_AT_EPOCH   = 51466
BSTAR          = .60377E-2
MEAN_MOTION_DOT = .4108E-4
MEAN_MOTION_DDOT = 0

CCSDS_OMM_VERS = 2.0
CREATION_DATE  = 
ORIGINATOR     = 

OBJECT_NAME    = UNKNOWN
OBJECT_ID      = 
CENTER_NAME    = EARTH
REF_FRAME      = TEME
TIME_SYSTEM    = UTC
MEAN_ELEMENT_THEORY = SGP/SGP4

EPOCH          = 2026-02-23T06:37:55.772544
MEAN_MOTION    = 14.35271379
ECCENTRICITY   = .0015327
INCLINATION    = 74.0332
RA_OF_ASC_NODE = 275.3120
ARG_OF_PERICENTER = 89.8098
MEAN_ANOMALY   = 270.4811

EPHEMERIS_TYPE = 0
CLASSIFICATION_TYPE = U
NORAD_CAT_ID   = 82189
ELEMENT_SET_NO = 999
REV_AT_EPOCH   = 64282
BSTAR          = .92846E-4
MEAN_MOTION_DOT = .24E-5
MEAN_MOTION_DDOT = 0

CCSDS_OMM_VERS = 2.0
CREATION_DATE  = 
ORIGINATOR     = 

OBJECT_NAME    = UNKNOWN
OBJECT_ID      = 
CENTER_NAME    = EARTH
REF_FRAME      = TEME
TIME_SYSTEM    = UTC
MEAN_ELEMENT_THEORY = SGP/SGP4

EPOCH          = 2026-02-21T19:37:02.425152
MEAN_MOTION    = 13.85869180
ECCENTRICITY   = .0038292
INCLINATION    = 82.9687
RA_OF_ASC_NODE = 180.4477
ARG_OF_PERICENTER = 192.8041
MEAN_ANOMALY   = 320.3034

EPHEMERIS_TYPE = 0
CLASSIFICATION_TYPE = U
NORAD_CAT_ID   = 82199
ELEMENT_SET_NO = 999
REV_AT_EPOCH   = 61953
BSTAR          = .44436E-3
MEAN_MOTION_DOT = .528E-5
MEAN_MOTION_DDOT = 0

CCSDS_OMM_VERS = 2.0
CREATION_DATE  = 
ORIGINATOR     = 

OBJECT_NAME    = UNKNOWN
OBJECT_ID      = 
CENTER_NAME    = EARTH
REF_FRAME      = TEME
TIME_SYSTEM    = UTC
MEAN_ELEMENT_THEORY = SGP/SGP4

EPOCH          = 2026-02-25T08:52:04.060416
MEAN_MOTION    = 13.93879590
ECCENTRICITY   = .0496455
INCLINATION    = 63.0101
RA_OF_ASC_NODE = 33.4141
ARG_OF_PERICENTER = 300.7032
MEAN_ANOMALY   = 54.5987

EPHEMERIS_TYPE = 0
CLASSIFICATION_TYPE = U
NORAD_CAT_ID   = 82205
ELEMENT_SET_NO = 999
REV_AT_EPOCH   = 61840
BSTAR          = .10972E-2
MEAN_MOTION_DOT = .3961E-4
MEAN_MOTION_DDOT = 0

CCSDS_OMM_VERS = 2.0
CREATION_DATE  = 
ORIGINATOR     = 

OBJECT_NAME    = UNKNOWN
OBJECT_ID      = 
CENTER_NAME    = EARTH
REF_FRAME      = TEME
TIME_SYSTEM    = UTC
MEAN_ELEMENT_THEORY = SGP/SGP4

EPOCH          = 2026-02-26T03:54:24.960096
MEAN_MOTION    = 14.12271602
ECCENTRICITY   = .0067433
INCLINATION    = 99.3169
RA_OF_ASC_NODE = 311.0597
ARG_OF_PERICENTER = 133.1458
MEAN_ANOMALY   = 227.5378

EPHEMERIS_TYPE = 0
CLASSIFICATION_TYPE = U
NORAD_CAT_ID   = 82223
ELEMENT_SET_NO = 999
REV_AT_EPOCH   = 45943
BSTAR          = .10676E-2
MEAN_MOTION_DOT = .196E-4
MEAN_MOTION_DDOT = 0

CCSDS_OMM_VERS = 2.0
CREATION_DATE  = 
ORIGINATOR     = 

OBJECT_NAME    = UNKNOWN
OBJECT_ID      = 
CENTER_NAME    = EARTH
REF_FRAME      = TEME
TIME_SYSTEM    = UTC
MEAN_ELEMENT_THEORY = SGP/SGP4

EPOCH          = 2026-02-27T05:36:46.921824
MEAN_MOTION    = 14.14473215
ECCENTRICITY   = .0073003
INCLINATION    = 98.9075
RA_OF_ASC_NODE = 328.4604
ARG_OF_PERICENTER = 336.1623
MEAN_ANOMALY   = 175.5748

EPHEMERIS_TYPE = 0
CLASSIFICATION_TYPE = U
NORAD_CAT_ID   = 82250
ELEMENT_SET_NO = 999
REV_AT_EPOCH   = 62744
BSTAR          = .21631E-2
MEAN_MOTION_DOT = .421E-4
MEAN_MOTION_DDOT = 0

CCSDS_OMM_VERS = 2.0
CREATION_DATE  = 
ORIGINATOR     = 

OBJECT_NAME    = UNKNOWN
OBJECT_ID      = 
CENTER_NAME    = EARTH
REF_FRAME      = TEME
TIME_SYSTEM    = UTC
MEAN_ELEMENT_THEORY = SGP/SGP4

EPOCH          = 2026-02-27T00:07:37.446528
MEAN_MOTION    = 12.33595960
ECCENTRICITY   = .0751346
INCLINATION    = 67.5241
RA_OF_ASC_NODE = 62.6175
ARG_OF_PERICENTER = 57.0478
MEAN_ANOMALY   = 310.0505

EPHEMERIS_TYPE = 0
CLASSIFICATION_TYPE = U
NORAD_CAT_ID   = 82272
ELEMENT_SET_NO = 999
REV_AT_EPOCH   = 28134
BSTAR          = .15222E-2
MEAN_MOTION_DOT = .443E-5
MEAN_MOTION_DDOT = 0

CCSDS_OMM_VERS = 2.0
CREATION_DATE  = 
ORIGINATOR     = 

OBJECT_NAME    = UNKNOWN
OBJECT_ID      = 
CENTER_NAME    = EARTH
REF_FRAME      = TEME
TIME_SYSTEM    = UTC
MEAN_ELEMENT_THEORY = SGP/SGP4

EPOCH          = 2026-02-27T15:01:44.678784
MEAN_MOTION    = 13.91546236
ECCENTRICITY   = .0028993
INCLINATION    = 81.9304
RA_OF_ASC_NODE = 296.4906
ARG_OF_PERICENTER = 59.4587
MEAN_ANOMALY   = 331.2616

EPHEMERIS_TYPE = 0
CLASSIFICATION_TYPE = U
NORAD_CAT_ID   = 82303
ELEMENT_SET_NO = 999
REV_AT_EPOCH   = 52510
BSTAR          = .19595E-1
MEAN_MOTION_DOT = .24975E-3
MEAN_MOTION_DDOT = 0

CCSDS_OMM_VERS = 2.0
CREATION_DATE  = 
ORIGINATOR     = 

OBJECT_NAME    = UNKNOWN
OBJECT_ID      = 
CENTER_NAME    = EARTH
REF_FRAME      = TEME
TIME_SYSTEM    = UTC
MEAN_ELEMENT_THEORY = SGP/SGP4

EPOCH          = 2026-02-27T13:45:26.998560
MEAN_MOTION    = 13.54656809
ECCENTRICITY   = .0111488
INCLINATION    = 99.4225
RA_OF_ASC_NODE = 113.8981
ARG_OF_PERICENTER = 114.9212
MEAN_ANOMALY   = 246.3560

EPHEMERIS_TYPE = 0
CLASSIFICATION_TYPE = U
NORAD_CAT_ID   = 82311
ELEMENT_SET_NO = 999
REV_AT_EPOCH   = 56072
BSTAR          = .75465E-3
MEAN_MOTION_DOT = .497E-5
MEAN_MOTION_DDOT = 0

CCSDS_OMM_VERS = 2.0
CREATION_DATE  = 
ORIGINATOR     = 

OBJECT_NAME    = UNKNOWN
OBJECT_ID      = 
CENTER_NAME    = EARTH
REF_FRAME      = TEME
TIME_SYSTEM    = UTC
MEAN_ELEMENT_THEORY = SGP/SGP4

EPOCH          = 2026-02-26T22:21:06.205248
MEAN_MOTION    = 13.15670630
ECCENTRICITY   = .0450196
INCLINATION    = 66.9384
RA_OF_ASC_NODE = 30.8152
ARG_OF_PERICENTER = 116.7075
MEAN_ANOMALY   = 248.0782

EPHEMERIS_TYPE = 0
CLASSIFICATION_TYPE = U
NORAD_CAT_ID   = 82363
ELEMENT_SET_NO = 999
REV_AT_EPOCH   = 30028
BSTAR          = .61305E-3
MEAN_MOTION_DOT = .327E-5
MEAN_MOTION_DDOT = 0

CCSDS_OMM_VERS = 2.0
CREATION_DATE  = 
ORIGINATOR     = 

OBJECT_NAME    = UNKNOWN
OBJECT_ID      = 
CENTER_NAME    = EARTH
REF_FRAME      = TEME
TIME_SYSTEM    = UTC
MEAN_ELEMENT_THEORY = SGP/SGP4

EPOCH          = 2026-02-14T12:09:58.863456
MEAN_MOTION    = 13.98212213
ECCENTRICITY   = .0083761
INCLINATION    = 98.8964
RA_OF_ASC_NODE = 63.6483
ARG_OF_PERICENTER = 162.2169
MEAN_ANOMALY   = 198.1958

EPHEMERIS_TYPE = 0
CLASSIFICATION_TYPE = U
NORAD_CAT_ID   = 82369
ELEMENT_SET_NO = 999
REV_AT_EPOCH   = 56608
BSTAR          = -.26937E-4
MEAN_MOTION_DOT = -.82E-6
MEAN_MOTION_DDOT = 0

CCSDS_OMM_VERS = 2.0
CREATION_DATE  = 
ORIGINATOR     = 

OBJECT_NAME    = UNKNOWN
OBJECT_ID      = 
CENTER_NAME    = EARTH
REF_FRAME      = TEME
TIME_SYSTEM    = UTC
MEAN_ELEMENT_THEORY = SGP/SGP4

EPOCH          = 2026-02-27T01:56:38.625504
MEAN_MOTION    = 14.85125804
ECCENTRICITY   = .0007418
INCLINATION    = 98.3918
RA_OF_ASC_NODE = 291.6434
ARG_OF_PERICENTER = 269.0411
MEAN_ANOMALY   = 90.9952

EPHEMERIS_TYPE = 0
CLASSIFICATION_TYPE = U
NORAD_CAT_ID   = 82381
ELEMENT_SET_NO = 999
REV_AT_EPOCH   = 52212
BSTAR          = .27269E-2
MEAN_MOTION_DOT = .23352E-3
MEAN_MOTION_DDOT = 0

