UNKNOWN                 
1 82162U          26058.28304300  .00004108  00000+0  60377-2 0  9997
2 82162 100.4724 352.1860 0059218  36.2212 324.2910 13.54264605514664
UNKNOWN                 
1 82189U          26054.27633996  .00000240  00000+0  92846-4 0  9998
2 82189  74.0332 275.3120 0015327  89.8098 270.4811 14.35271379642826
UNKNOWN                 
1 82199U          26052.81738918  .00000528  00000+0  44436-3 0  9997
2 82199  82.9687 180.4477 0038292 192.8041 320.3034 13.85869180619539
UNKNOWN                 
1 82205U          26056.36949144  .00003961  00000+0  10972-2 0  9995
2 82205  63.0101  33.4141 0496455 300.7032  54.5987 13.93879590618405
UNKNOWN                 
1 82223U          26057.16278889  .00001960  00000+0  10676-2 0  9993
2 82223  99.3169 311.0597 0067433 133.1458 227.5378 14.12271602459435
UNKNOWN                 
1 82250U          26058.23387641  .00004210  00000+0  21631-2 0  9993
2 82250  98.9075 328.4604 0073003 336.1623 175.5748 14.14473215627443
UNKNOWN                 
1 82272U          26058.00529452  .00000443  00000+0  15222-2 0  9993
2 82272  67.5241  62.6175 0751346  57.0478 310.0505 12.33595960281347
UNKNOWN                 
1 82303U          26058.62621156  .00024975  00000+0  19595-1 0  9992
2 82303  81.9304 296.4906 0028993  59.4587 331.2616 13.91546236525103
UNKNOWN                 
1 82311U          26058.57322915  .00000497  00000+0  75465-3 0  9999
2 82311  99.4225 113.8981 0111488 114.9212 246.3560 13.54656809560725
UNKNOWN                 
1 82363U          26057.93132182  .00000327  00000+0  61305-3 0  9990
2 82363  66.9384  30.8152 0450196 116.7075 248.0782 13.15670630300287
UNKNOWN                 
1 82369U          26045.50693129 -.00000082  00000+0 -26937-4 0  9992
2 82369  98.8964  63.6483 0083761 162.2169 198.1958 13.98212213566084
UNKNOWN                 
1 82381U          26058.08100261  .00023352  00000+0  27269-2 0  9993
2 82381  98.3918 291.6434 0007418 269.0411  90.9952 14.85125804522128
